{
  "norad_id": 66344,
  "name": "STARLINK-35511",
  "history": [
    {
      "epoch": "2026-04-14T00:43:27.273792Z",
      "apogee_km": 483.7983577946816,
      "perigee_km": 482.22221504004483,
      "latitude_deg": -4.373423415953954e-06,
      "longitude_deg": 159.46619733179068,
      "height_km": 482.81263073889926,
      "semi_major_axis_km": 6861.147286417363,
      "eccentricity": 0.00011486,
      "inclination_deg": 43.0005,
      "raan_deg": 12.5423,
      "arg_perigee_deg": 268.1236,
      "mean_anomaly_deg": 91.9484,
      "mean_motion_rev_day": 15.27592961
    },
    {
      "epoch": "2026-04-15T09:40:44.225760Z",
      "apogee_km": 483.77901896333333,
      "perigee_km": 482.31923300316885,
      "latitude_deg": 1.342995886942953e-05,
      "longitude_deg": 16.038283584584015,
      "height_km": 482.9590790464667,
      "semi_major_axis_km": 6861.18612598325,
      "eccentricity": 0.00010638,
      "inclination_deg": 43.0021,
      "raan_deg": 4.7884,
      "arg_perigee_deg": 259.4739,
      "mean_anomaly_deg": 100.5993,
      "mean_motion_rev_day": 15.2757999
    },
    {
      "epoch": "2026-04-16T09:13:04.307232Z",
      "apogee_km": 484.1778880728616,
      "perigee_km": 481.6557646862848,
      "latitude_deg": 7.828132957043626e-06,
      "longitude_deg": 16.450097985741497,
      "height_km": 482.5808373784188,
      "semi_major_axis_km": 6861.0538263795725,
      "eccentricity": 0.0001838,
      "inclination_deg": 43.0038,
      "raan_deg": 359.2506,
      "arg_perigee_deg": 275.1624,
      "mean_anomaly_deg": 84.9018,
      "mean_motion_rev_day": 15.27624174
    },
    {
      "epoch": "2026-04-17T22:52:50.001600Z",
      "apogee_km": 484.1269802968245,
      "perigee_km": 482.01743291416096,
      "latitude_deg": 2.4161344593636575e-05,
      "longitude_deg": 161.10207263694002,
      "height_km": 482.97071669016486,
      "semi_major_axis_km": 6861.209206605492,
      "eccentricity": 0.00015373,
      "inclination_deg": 43.0012,
      "raan_deg": 350.3897,
      "arg_perigee_deg": 263.3805,
      "mean_anomaly_deg": 96.6872,
      "mean_motion_rev_day": 15.27572282
    },
    {
      "epoch": "2026-04-18T00:26:59.446176Z",
      "apogee_km": 484.1382691038725,
      "perigee_km": 481.99578953367836,
      "latitude_deg": 3.0873554833264274e-05,
      "longitude_deg": 137.128578992093,
      "height_km": 482.9471946560257,
      "semi_major_axis_km": 6861.204029318776,
      "eccentricity": 0.00015613,
      "inclination_deg": 43.001,
      "raan_deg": 350.02,
      "arg_perigee_deg": 264.4694,
      "mean_anomaly_deg": 95.598,
      "mean_motion_rev_day": 15.27574011
    },
    {
      "epoch": "2026-04-18T22:25:10.917696Z",
      "apogee_km": 484.1053332143583,
      "perigee_km": 481.9344631717704,
      "latitude_deg": 7.996340610595897e-06,
      "longitude_deg": 161.5090867779904,
      "height_km": 482.8804980102485,
      "semi_major_axis_km": 6861.156898193064,
      "eccentricity": 0.0001582,
      "inclination_deg": 43.0008,
      "raan_deg": 344.8506,
      "arg_perigee_deg": 265.5786,
      "mean_anomaly_deg": 94.4885,
      "mean_motion_rev_day": 15.27589751
    },
    {
      "epoch": "2026-04-19T23:31:41.515104Z",
      "apogee_km": 484.2349807373075,
      "perigee_km": 481.7888439270837,
      "latitude_deg": 7.421453798464403e-08,
      "longitude_deg": 137.94271847191516,
      "height_km": 482.63249103624753,
      "semi_major_axis_km": 6861.148912332195,
      "eccentricity": 0.00017826,
      "inclination_deg": 43.0012,
      "raan_deg": 338.9429,
      "arg_perigee_deg": 277.355,
      "mean_anomaly_deg": 82.7099,
      "mean_motion_rev_day": 15.27592418
    },
    {
      "epoch": "2026-04-21T21:02:13.354080Z",
      "apogee_km": 483.9977511011866,
      "perigee_km": 482.0670180363695,
      "latitude_deg": 2.152724584552082e-05,
      "longitude_deg": 162.72969259886435,
      "height_km": 482.9699714976215,
      "semi_major_axis_km": 6861.169384568778,
      "eccentricity": 0.0001407,
      "inclination_deg": 43.0025,
      "raan_deg": 328.2315,
      "arg_perigee_deg": 260.4211,
      "mean_anomaly_deg": 99.6482,
      "mean_motion_rev_day": 15.27585581
    }
  ]
}